H1 CPF  1  DLR 2022 01 24 16  5244 technosat            
H2  1704205 6203    42829 2022 01 24 09 00 00 2022 01 31 09 00 00    60 1 1  0 0 0
H9
10 0 59607  39600.000000  0      -4599533.647       4595108.260      -2529169.765
10 0 59607  39660.000000  0      -4411106.357       4534945.850      -2942442.691
10 0 59607  39720.000000  0      -4204749.491       4453987.809      -3343253.134
10 0 59607  39780.000000  0      -3981525.654       4352436.959      -3729914.680
10 0 59607  39840.000000  0      -3742564.906       4230591.888      -4100803.623
10 0 59607  39900.000000  0      -3489058.836       4088845.902      -4454365.642
10 0 59607  39960.000000  0      -3222254.427       3927685.491      -4789122.020
10 0 59607  40020.000000  0      -2943447.874       3747688.469      -5103675.483
10 0 59607  40080.000000  0      -2653978.221       3549521.719      -5396715.758
10 0 59607  40140.000000  0      -2355220.846       3333938.509      -5667024.698
10 0 59607  40200.000000  0      -2048580.867       3101775.410      -5913480.991
10 0 59607  40260.000000  0      -1735486.510       2853948.835      -6135064.400
10 0 59607  40320.000000  0      -1417382.472       2591451.233      -6330859.553
10 0 59607  40380.000000  0      -1095723.338       2315346.990      -6500059.234
10 0 59607  40440.000000  0       -771967.078       2026768.109      -6641967.296
10 0 59607  40500.000000  0       -447568.565       1726909.545      -6756001.193
10 0 59607  40560.000000  0       -123973.237       1417024.242      -6841693.943
10 0 59607  40620.000000  0        197389.059       1098418.025      -6898695.776
10 0 59607  40680.000000  0        515110.195        772444.254      -6926775.409
10 0 59607  40740.000000  0        827809.787        440498.213      -6925820.860
10 0 59607  40800.000000  0       1134141.008        104011.256      -6895839.739
10 0 59607  40860.000000  0       1432796.170       -235555.174      -6836959.088
10 0 59607  40920.000000  0       1722512.075       -576715.654      -6749424.835
10 0 59607  40980.000000  0       2002075.150       -917967.024      -6633600.900
10 0 59607  41040.000000  0       2270326.421      -1257794.816      -6489967.876
10 0 59607  41100.000000  0       2526166.217      -1594679.738      -6319121.171
10 0 59607  41160.000000  0       2768558.543      -1927104.192      -6121768.840
10 0 59607  41220.000000  0       2996535.249      -2253558.925      -5898729.081
10 0 59607  41280.000000  0       3209199.958      -2572549.816      -5650927.265
10 0 59607  41340.000000  0       3405731.699      -2882604.695      -5379392.433
10 0 59607  41400.000000  0       3585388.136      -3182280.095      -5085253.295
10 0 59607  41460.000000  0       3747508.405      -3470167.902      -4769733.864
10 0 59607  41520.000000  0       3891515.616      -3744901.929      -4434148.745
10 0 59607  41580.000000  0       4016919.029      -4005164.400      -4079898.070
10 0 59607  41640.000000  0       4123315.878      -4249692.364      -3708462.022
10 0 59607  41700.000000  0       4210392.799      -4477283.934      -3321394.957
10 0 59607  41760.000000  0       4277926.876      -4686804.313      -2920319.147
10 0 59607  41820.000000  0       4325786.272      -4877191.612      -2506918.185
10 0 59607  41880.000000  0       4353930.396      -5047462.433      -2082930.040
10 0 59607  41940.000000  0       4362409.582      -5196717.099      -1650139.791
10 0 59607  42000.000000  0       4351364.406      -5324144.493      -1210372.151
10 0 59607  42060.000000  0       4321024.572      -5429026.577       -765483.718
10 0 59607  42120.000000  0       4271707.311      -5510742.468       -317355.032
10 0 59607  42180.000000  0       4203815.364      -5568772.085        132117.486
10 0 59607  42240.000000  0       4117834.559      -5602699.363        581029.696
10 0 59607  42300.000000  0       4014331.004      -5612214.967       1027478.048
10 0 59607  42360.000000  0       3893947.863      -5597118.453       1469567.929
10 0 59607  42420.000000  0       3757401.702      -5557319.864       1905421.960
10 0 59607  42480.000000  0       3605478.474      -5492840.825       2333188.140
10 0 59607  42540.000000  0       3439029.226      -5403815.160       2751047.904
10 0 59607  42600.000000  0       3258965.511      -5290488.954       3157224.092
10 0 59607  42660.000000  0       3066254.490      -5153219.987       3549988.730
10 0 59607  42720.000000  0       2861913.817      -4992476.645       3927670.490
10 0 59607  42780.000000  0       2647006.349      -4808836.353       4288661.971
10 0 59607  42840.000000  0       2422634.608      -4602983.430       4631426.694
10 0 59607  42900.000000  0       2189935.091      -4375706.392       4954505.684
10 0 59607  42960.000000  0       1950072.544      -4127894.850       5256523.703
10 0 59607  43020.000000  0       1704234.093      -3860535.869       5536195.214
10 0 59607  43080.000000  0       1453623.274      -3574709.819       5792329.840
10 0 59607  43140.000000  0       1199454.080      -3271585.821       6023837.348
10 0 59607  43200.000000  0        942945.028      -2952416.821       6229732.182
10 0 59607  43260.000000  0        685313.285      -2618534.292       6409137.579
10 0 59607  43320.000000  0        427768.835      -2271342.521       6561289.202
10 0 59607  43380.000000  0        171508.801      -1912312.623       6685538.252
10 0 59607  43440.000000  0        -82288.122      -1542976.292       6781354.226
10 0 59607  43500.000000  0       -332467.124      -1164919.138       6848327.215
10 0 59607  43560.000000  0       -577902.555       -779773.769       6886169.580
10 0 59607  43620.000000  0       -817503.013       -389212.699       6894717.188
10 0 59607  43680.000000  0      -1050216.261          5058.980       6873930.142
10 0 59607  43740.000000  0      -1275033.906        401311.102       6823892.987
10 0 59607  43800.000000  0      -1490995.800        797796.087       6744814.414
10 0 59607  43860.000000  0      -1697194.201       1192756.685       6637026.470
10 0 59607  43920.000000  0      -1892777.683       1584433.835       6500983.282
10 0 59607  43980.000000  0      -2076954.731       1971074.584       6337259.239
10 0 59607  44040.000000  0      -2248997.013       2350940.021       6146546.722
10 0 59607  44100.000000  0      -2408242.354       2722313.264       5929653.315
10 0 59607  44160.000000  0      -2554097.339       3083507.339       5687498.498
10 0 59607  44220.000000  0      -2686039.640       3432873.002       5421109.966
10 0 59607  44280.000000  0      -2803620.002       3768806.530       5131619.375
10 0 59607  44340.000000  0      -2906463.812       4089757.304       4820257.601
10 0 59607  44400.000000  0      -2994272.298       4394235.220       4488349.567
10 0 59607  44460.000000  0      -3066823.353       4680817.885       4137308.628
10 0 59607  44520.000000  0      -3123971.963       4948157.555       3768630.513
10 0 59607  44580.000000  0      -3165650.223       5194987.735       3383886.850
10 0 59607  44640.000000  0      -3191866.950       5420129.418       2984718.324
10 0 59607  44700.000000  0      -3202706.917       5622496.922       2572827.530
10 0 59607  44760.000000  0      -3198329.715       5801103.310       2149971.493
10 0 59607  44820.000000  0      -3178968.206       5955065.324       1717953.956
10 0 59607  44880.000000  0      -3144926.585       6083607.899       1278617.467
10 0 59607  44940.000000  0      -3096578.091       6186068.158        833835.223
10 0 59607  45000.000000  0      -3034362.371       6261898.846        385502.766
10 0 59607  45060.000000  0      -2958782.501       6310671.184        -64470.438
10 0 59607  45120.000000  0      -2870401.744       6332077.145       -514169.455
10 0 59607  45180.000000  0      -2769839.981       6325931.141       -961682.413
10 0 59607  45240.000000  0      -2657769.833       6292171.059      -1405109.017
10 0 59607  45300.000000  0      -2534912.485       6230858.568      -1842569.001
10 0 59607  45360.000000  0      -2402033.296       6142178.757      -2272210.213
10 0 59607  45420.000000  0      -2259937.280       6026439.337      -2692216.517
10 0 59607  45480.000000  0      -2109464.451       5884069.262      -3100815.494
10 0 59607  45540.000000  0      -1951485.060       5715616.817      -3496285.940
10 0 59607  45600.000000  0      -1786894.727       5521747.070      -3876965.113
10 0 59607  45660.000000  0      -1616609.528       5303238.774      -4241255.578
10 0 59607  45720.000000  0      -1441561.048       5060980.814      -4587631.676
10 0 59607  45780.000000  0      -1262691.452       4795968.238      -4914645.634
10 0 59607  45840.000000  0      -1080948.576       4509297.835      -5220933.354
10 0 59607  45900.000000  0       -897281.044       4202163.276      -5505219.794
10 0 59607  45960.000000  0       -712633.453       3875849.842      -5766323.951
10 0 59607  46020.000000  0       -527941.648       3531728.764      -6003163.392
10 0 59607  46080.000000  0       -344128.124       3171251.216      -6214758.323
10 0 59607  46140.000000  0       -162097.582       2795942.018      -6400235.168
10 0 59607  46200.000000  0         17267.337       2407393.142      -6558829.693
10 0 59607  46260.000000  0        193110.134       2007257.014      -6689889.791
10 0 59607  46320.000000  0        364604.367       1597239.531      -6792877.866
10 0 59607  46380.000000  0        530957.382       1179092.850      -6867372.700
10 0 59607  46440.000000  0        691413.828        754608.094      -6913070.863
10 0 59607  46500.000000  0        845258.946        325607.880      -6929787.790
10 0 59607  46560.000000  0        991821.610       -106061.342      -6917458.360
10 0 59607  46620.000000  0       1130477.126       -538536.990      -6876136.993
10 0 59607  46680.000000  0       1260649.777       -969948.067      -6805997.353
10 0 59607  46740.000000  0       1381815.115      -1398422.955      -6707331.660
99
